ASTROCAST-0403          
1 55111U 23001DG  26068.82333059  .00013959  00000+0  51317-3 0  9990
2 55111  97.5604 161.3228 0004771 338.0704  22.0330 15.28004949129377
STARLINK-36482          
1 67309U 26002E   26068.06261436  .00043047  00000+0  15648-2 0  9998
2 67309  43.0008 328.7520 0001360 281.0534  79.0165 15.27577953 10989
